{
  "type": "FeatureCollection",
  "features": [
    {
      "type": "Feature",
      "properties": {
        "norad_id": 59626,
        "name": "LEGION 2",
        "group": "resource",
        "lat": 62.67644420494463,
        "lon": 47.60076028714855,
        "alt_km": 513.0564800750772,
        "timestamp": "2025-12-13T16:48:32.371326+00:00",
        "meta_object_name": "LEGION 2",
        "meta_object_id": "2024-081B",
        "meta_epoch": "2025-12-12T23:06:34.930656",
        "meta_mean_motion": 15.16496698,
        "meta_eccentricity": 0.00057281,
        "meta_inclination": 97.5215,
        "meta_ra_of_asc_node": 61.6865,
        "meta_arg_of_pericenter": 292.4102,
        "meta_mean_anomaly": 67.6523,
        "meta_ephemeris_type": 0,
        "meta_classification_type": "U",
        "meta_norad_cat_id": 59626,
        "meta_element_set_no": 999,
        "meta_rev_at_epoch": 8931,
        "meta_bstar": 0.00042777148,
        "meta_mean_motion_dot": 8.271e-05,
        "meta_mean_motion_ddot": 0,
        "tle_line1": "1 59626U 24081B   25346.96290429  .00008271  00000+0  42777-3 0  9991",
        "tle_line2": "2 59626  97.5215  61.6865 0005728 292.4102  67.6523 15.16496698 89318"
      },
      "geometry": {
        "type": "Point",
        "coordinates": [
          47.60076028714855,
          62.67644420494463
        ]
      }
    },
    {
      "type": "Feature",
      "properties": {
        "norad_id": 60182,
        "name": "ALOS-4 (DAICHI-4)",
        "group": "resource",
        "lat": -46.370667214878374,
        "lon": 90.93331236631062,
        "alt_km": 638.463925747983,
        "timestamp": "2025-12-13T16:48:32.371336+00:00",
        "meta_object_name": "ALOS-4 (DAICHI-4)",
        "meta_object_id": "2024-123A",
        "meta_epoch": "2025-12-10T20:50:51.532800",
        "meta_mean_motion": 14.79478132,
        "meta_eccentricity": 0.0001419,
        "meta_inclination": 97.9225,
        "meta_ra_of_asc_node": 79.7424,
        "meta_arg_of_pericenter": 101.2045,
        "meta_mean_anomaly": 258.9326,
        "meta_ephemeris_type": 0,
        "meta_classification_type": "U",
        "meta_norad_cat_id": 60182,
        "meta_element_set_no": 999,
        "meta_rev_at_epoch": 7803,
        "meta_bstar": 0.00039567,
        "meta_mean_motion_dot": 2.905e-05,
        "meta_mean_motion_ddot": 0,
        "tle_line1": "1 60182U 24123A   25344.86865200  .00002905  00000+0  39567-3 0  9990",
        "tle_line2": "2 60182  97.9225  79.7424 0001419 101.2045 258.9326 14.79478132 78033"
      },
      "geometry": {
        "type": "Point",
        "coordinates": [
          90.93331236631062,
          -46.370667214878374
        ]
      }
    },
    {
      "type": "Feature",
      "properties": {
        "norad_id": 60452,
        "name": "LEGION 3",
        "group": "resource",
        "lat": 38.562198699495355,
        "lon": 72.0681210480901,
        "alt_km": 511.9913838669163,
        "timestamp": "2025-12-13T16:48:32.371348+00:00",
        "meta_object_name": "LEGION 3",
        "meta_object_id": "2024-146A",
        "meta_epoch": "2025-12-12T22:53:26.662848",
        "meta_mean_motion": 15.15764531,
        "meta_eccentricity": 0.00149063,
        "meta_inclination": 45.0016,
        "meta_ra_of_asc_node": 308.9853,
        "meta_arg_of_pericenter": 199.856,
        "meta_mean_anomaly": 160.174,
        "meta_ephemeris_type": 0,
        "meta_classification_type": "U",
        "meta_norad_cat_id": 60452,
        "meta_element_set_no": 999,
        "meta_rev_at_epoch": 7376,
        "meta_bstar": 0.00040233783,
        "meta_mean_motion_dot": 7.569e-05,
        "meta_mean_motion_ddot": 0,
        "tle_line1": "1 60452U 24146A   25346.95378082  .00007569  00000+0  40234-3 0  9998",
        "tle_line2": "2 60452  45.0016 308.9853 0014906 199.8560 160.1740 15.15764531 73769"
      },
      "geometry": {
        "type": "Point",
        "coordinates": [
          72.0681210480901,
          38.562198699495355
        ]
      }
    },
    {
      "type": "Feature",
      "properties": {
        "norad_id": 60453,
        "name": "LEGION 4",
        "group": "resource",
        "lat": 39.73583972322845,
        "lon": 160.56175700704154,
        "alt_km": 518.4416149858725,
        "timestamp": "2025-12-13T16:48:32.371358+00:00",
        "meta_object_name": "LEGION 4",
        "meta_object_id": "2024-146B",
        "meta_epoch": "2025-12-12T21:19:22.281312",
        "meta_mean_motion": 15.15827457,
        "meta_eccentricity": 0.00094836,
        "meta_inclination": 45.0391,
        "meta_ra_of_asc_node": 41.0864,
        "meta_arg_of_pericenter": 311.9322,
        "meta_mean_anomaly": 48.0748,
        "meta_ephemeris_type": 0,
        "meta_classification_type": "U",
        "meta_norad_cat_id": 60453,
        "meta_element_set_no": 999,
        "meta_rev_at_epoch": 7260,
        "meta_bstar": 0.00041716988,
        "meta_mean_motion_dot": 7.86e-05,
        "meta_mean_motion_ddot": 0,
        "tle_line1": "1 60453U 24146B   25346.88845233  .00007860  00000+0  41717-3 0  9999",
        "tle_line2": "2 60453  45.0391  41.0864 0009483 311.9322  48.0748 15.15827457 72601"
      },
      "geometry": {
        "type": "Point",
        "coordinates": [
          160.56175700704154,
          39.73583972322845
        ]
      }
    },
    {
      "type": "Feature",
      "properties": {
        "norad_id": 60989,
        "name": "SENTINEL-2C",
        "group": "resource",
        "lat": -81.35531541896425,
        "lon": 157.5703637487285,
        "alt_km": 797.1865982797308,
        "timestamp": "2025-12-13T16:48:32.371368+00:00",
        "meta_object_name": "SENTINEL-2C",
        "meta_object_id": "2024-157A",
        "meta_epoch": "2025-12-12T22:46:22.228032",
        "meta_mean_motion": 14.30817628,
        "meta_eccentricity": 0.00011983,
        "meta_inclination": 98.5683,
        "meta_ra_of_asc_node": 59.4284,
        "meta_arg_of_pericenter": 97.426,
        "meta_mean_anomaly": 262.706,
        "meta_ephemeris_type": 0,
        "meta_classification_type": "U",
        "meta_norad_cat_id": 60989,
        "meta_element_set_no": 999,
        "meta_rev_at_epoch": 6635,
        "meta_bstar": 0.00010118112,
        "meta_mean_motion_dot": 2.22e-06,
        "meta_mean_motion_ddot": 0,
        "tle_line1": "1 60989U 24157A   25346.94886838  .00000222  00000+0  10118-3 0  9994",
        "tle_line2": "2 60989  98.5683  59.4284 0001198  97.4260 262.7060 14.30817628 66355"
      },
      "geometry": {
        "type": "Point",
        "coordinates": [
          157.5703637487285,
          -81.35531541896425
        ]
      }
    },
    {
      "type": "Feature",
      "properties": {
        "norad_id": 61735,
        "name": "IONOSFERA-M 1",
        "group": "resource",
        "lat": 32.185564421639846,
        "lon": 43.097222589872715,
        "alt_km": 814.6718977329856,
        "timestamp": "2025-12-13T16:48:32.371379+00:00",
        "meta_object_name": "IONOSFERA-M 1",
        "meta_object_id": "2024-199A",
        "meta_epoch": "2025-12-13T00:55:41.458656",
        "meta_mean_motion": 14.22714146,
        "meta_eccentricity": 9.458e-05,
        "meta_inclination": 98.7403,
        "meta_ra_of_asc_node": 216.8846,
        "meta_arg_of_pericenter": 21.1906,
        "meta_mean_anomaly": 338.9311,
        "meta_ephemeris_type": 0,
        "meta_classification_type": "U",
        "meta_norad_cat_id": 61735,
        "meta_element_set_no": 999,
        "meta_rev_at_epoch": 10123,
        "meta_bstar": 6.5257115e-05,
        "meta_mean_motion_dot": 1.02e-06,
        "meta_mean_motion_ddot": 0,
        "tle_line1": "1 61735U 24199A   25347.03867429  .00000102  00000+0  65257-4 0  9998",
        "tle_line2": "2 61735  98.7403 216.8846 0000945  21.1906 338.9311 14.22714146101234"
      },
      "geometry": {
        "type": "Point",
        "coordinates": [
          43.097222589872715,
          32.185564421639846
        ]
      }
    },
    {
      "type": "Feature",
      "properties": {
        "norad_id": 61736,
        "name": "IONOSFERA-M 2",
        "group": "resource",
        "lat": -29.775879557770086,
        "lon": -137.49701283926612,
        "alt_km": 822.9487276147674,
        "timestamp": "2025-12-13T16:48:32.371389+00:00",
        "meta_object_name": "IONOSFERA-M 2",
        "meta_object_id": "2024-199B",
        "meta_epoch": "2025-12-13T00:04:18.546816",
        "meta_mean_motion": 14.22716286,
        "meta_eccentricity": 0.00016566,
        "meta_inclination": 98.7402,
        "meta_ra_of_asc_node": 216.7617,
        "meta_arg_of_pericenter": 110.1801,
        "meta_mean_anomaly": 249.9556,
        "meta_ephemeris_type": 0,
        "meta_classification_type": "U",
        "meta_norad_cat_id": 61736,
        "meta_element_set_no": 999,
        "meta_rev_at_epoch": 10435,
        "meta_bstar": 6.8074219e-05,
        "meta_mean_motion_dot": 1.08e-06,
        "meta_mean_motion_ddot": 0,
        "tle_line1": "1 61736U 24199B   25347.00299244  .00000108  00000+0  68074-4 0  9996",
        "tle_line2": "2 61736  98.7402 216.7617 0001656 110.1801 249.9556 14.22716286104357"
      },
      "geometry": {
        "type": "Point",
        "coordinates": [
          -137.49701283926612,
          -29.775879557770086
        ]
      }
    }
  ]
}